[{"OBJECT_NAME":"OBJECT B","OBJECT_ID":"2025-274B","EPOCH":"2026-03-09T17:22:54.825024","MEAN_MOTION":14.92604325,"ECCENTRICITY":0.00115111,"INCLINATION":97.7427,"RA_OF_ASC_NODE":359.4041,"ARG_OF_PERICENTER":330.3521,"MEAN_ANOMALY":29.7045,"EPHEMERIS_TYPE":0,"CLASSIFICATION_TYPE":"U","NORAD_CAT_ID":66651,"ELEMENT_SET_NO":999,"REV_AT_EPOCH":1537,"BSTAR":0.00043239201,"MEAN_MOTION_DOT":4.4e-5,"MEAN_MOTION_DDOT":0},{"OBJECT_NAME":"SL-8 R\/B","OBJECT_ID":"1990-078B","EPOCH":"2026-03-09T21:52:42.731616","MEAN_MOTION":14.89068601,"ECCENTRICITY":0.03622553,"INCLINATION":82.9007,"RA_OF_ASC_NODE":251.1111,"ARG_OF_PERICENTER":13.2503,"MEAN_ANOMALY":347.792,"EPHEMERIS_TYPE":0,"CLASSIFICATION_TYPE":"U","NORAD_CAT_ID":20775,"ELEMENT_SET_NO":999,"REV_AT_EPOCH":80933,"BSTAR":0.00056464849,"MEAN_MOTION_DOT":0.0001918,"MEAN_MOTION_DDOT":0}]
